[{"OBJECT_NAME":"STARLINK-1962","OBJECT_ID":"2021-009R","EPOCH":"2026-03-09T22:00:01.999584","MEAN_MOTION":15.62051147,"ECCENTRICITY":0.0008374,"INCLINATION":53.0458,"RA_OF_ASC_NODE":355.4518,"ARG_OF_PERICENTER":84.9109,"MEAN_ANOMALY":208.5785,"EPHEMERIS_TYPE":0,"CLASSIFICATION_TYPE":"U","NORAD_CAT_ID":47563,"ELEMENT_SET_NO":999,"REV_AT_EPOCH":592,"BSTAR":0.0016301581,"MEAN_MOTION_DOT":0.00147576,"MEAN_MOTION_DDOT":0},{"OBJECT_NAME":"STARLINK-36624","OBJECT_ID":"2026-020V","EPOCH":"2026-03-09T22:00:01.999584","MEAN_MOTION":15.72324951,"ECCENTRICITY":0.00014578,"INCLINATION":42.9993,"RA_OF_ASC_NODE":140.3634,"ARG_OF_PERICENTER":283.0093,"MEAN_ANOMALY":189.311,"EPHEMERIS_TYPE":0,"CLASSIFICATION_TYPE":"U","NORAD_CAT_ID":67636,"ELEMENT_SET_NO":999,"REV_AT_EPOCH":604,"BSTAR":-0.016364225,"MEAN_MOTION_DOT":-0.0197652,"MEAN_MOTION_DDOT":0}]
